[{"OBJECT_NAME":"TEVEL2-6","OBJECT_ID":"2025-052F","EPOCH":"2026-03-09T15:35:24.554400","MEAN_MOTION":15.30760889,"ECCENTRICITY":0.0004769,"INCLINATION":97.4016,"RA_OF_ASC_NODE":325.0381,"ARG_OF_PERICENTER":95.6604,"MEAN_ANOMALY":264.5181,"EPHEMERIS_TYPE":0,"CLASSIFICATION_TYPE":"U","NORAD_CAT_ID":63215,"ELEMENT_SET_NO":999,"REV_AT_EPOCH":5486,"BSTAR":0.00070909,"MEAN_MOTION_DOT":0.00021046,"MEAN_MOTION_DDOT":0},{"OBJECT_NAME":"STARLINK-35706","OBJECT_ID":"2025-294X","EPOCH":"2026-03-09T18:49:29.277696","MEAN_MOTION":15.27570629,"ECCENTRICITY":9.413e-5,"INCLINATION":43.0009,"RA_OF_ASC_NODE":37.5365,"ARG_OF_PERICENTER":279.7056,"MEAN_ANOMALY":80.369,"EPHEMERIS_TYPE":0,"CLASSIFICATION_TYPE":"U","NORAD_CAT_ID":67051,"ELEMENT_SET_NO":999,"REV_AT_EPOCH":1481,"BSTAR":0.00083859293,"MEAN_MOTION_DOT":0.00022879,"MEAN_MOTION_DDOT":0}]
